48210,ONEWEB-0176,2021,109.55,148.0,+,87.89,Active,1,LEO,Russia,UK,Commercial,Communications,Soyuz,1 48210U 21031A   24196.15512996  .00003885  00000+0  10443-1 0  9998,2 48210  87.8942  69.5581 0001605  68.8414 291.2887 13.14483994157244,13.14483994,0.0001605,LEO
48211,ONEWEB-0184,2021,109.55,148.0,+,87.89,Active,1,LEO,Russia,UK,Commercial,Communications,Soyuz,1 48211U 21031B   24195.89981269 -.00000209  00000+0 -59855-3 0  9993,2 48211  87.8944  69.5919 0001734  46.0959 314.0313 13.14502067155897,13.14502067,0.0001734,LEO
48212,ONEWEB-0179,2021,109.55,148.0,+,87.89,Active,1,LEO,Russia,UK,Commercial,Communications,Soyuz,1 48212U 21031C   24195.94580431  .00000187  00000+0  46879-3 0  9991,2 48212  87.8947  69.5868 0001677  81.7260 278.4060 13.14503299155947,13.14503299,0.0001677,LEO
48213,ONEWEB-0180,2021,109.55,148.0,+,87.89,Active,1,LEO,Russia,UK,Commercial,Communications,Soyuz,1 48213U 21031D   24195.90297745 -.00000155  00000+0 -45164-3 0  9994,2 48213  87.8945  69.5925 0001608  83.1159 277.0153 13.14499689155829,13.14499689,0.0001608,LEO
48214,ONEWEB-0218,2021,109.55,148.0,+,87.89,Active,1,LEO,Russia,UK,Commercial,Communications,Soyuz,1 48214U 21031E   24196.15353933 -.00000044  00000+0 -15397-3 0  9997,2 48214  87.8943  69.5442 0001349  41.4089 318.7143 13.14504020156013,13.1450402,0.0001349,LEO
48215,ONEWEB-0209,2021,109.55,148.0,+,87.89,Active,1,LEO,Russia,UK,Commercial,Communications,Soyuz,1 48215U 21031F   24195.68573223 -.00000177  00000+0 -51308-3 0  9990,2 48215  87.8947  69.6720 0001645  83.9666 276.1651 13.14503555155954,13.14503555,0.0001645,LEO
48216,ONEWEB-0198,2021,109.55,148.0,+,87.89,Active,1,LEO,Russia,UK,Commercial,Communications,Soyuz,1 48216U 21031G   24195.89822483 -.00000139  00000+0 -41076-3 0  9998,2 48216  87.8948  69.6345 0001424  71.7256 288.4029 13.14503891156076,13.14503891,0.0001424,LEO
48217,ONEWEB-0189,2021,109.55,148.0,+,87.89,Active,1,LEO,Russia,UK,Commercial,Communications,Soyuz,1 48217U 21031H   24195.91091332 -.00000217  00000+0 -61966-3 0  9990,2 48217  87.8948  69.6071 0001347  73.0626 287.0651 13.14501916155838,13.14501916,0.0001347,LEO
